H1 CPF 01  gfz 2021 03 16 01  5751 terrasarx 
H2 0702601  6201 31698    2021 03 16 00 59 42 2021 03 21 00 00 42   120 1 1  0 0 0
H9
10 0 59291  29502.000000  0     137987.222  -1143993.989  -6798020.252
10 0 59291  29622.000000  0    -636623.959   -652408.395  -6834462.200
10 0 59291  29742.000000  0   -1391390.895   -136143.677  -6751719.794
10 0 59291  29862.000000  0   -2112891.369    395396.934  -6551215.936
10 0 59291  29982.000000  0   -2788435.326    932312.348  -6236399.705
10 0 59291  30102.000000  0   -3406283.587   1464383.077  -5812693.798
10 0 59291  30222.000000  0   -3955851.086   1981261.146  -5287411.859
10 0 59291  30342.000000  0   -4427891.780   2472668.461  -4669644.067
10 0 59291  30462.000000  0   -4814659.891   2928600.261  -3970110.094
10 0 59291  30582.000000  0   -5110044.047   3339527.955  -3200982.693
10 0 59291  30702.000000  0   -5309673.078   3696599.256  -2375684.072
10 0 59291  30822.000000  0   -5410988.686   3991830.386  -1508655.212
10 0 59291  30942.000000  0   -5413283.862   4218284.802   -615103.231
10 0 59291  31062.000000  0   -5317704.541   4370234.168    289269.298
10 0 59291  31182.000000  0   -5127213.869   4443297.605   1188547.960
10 0 59291  31302.000000  0   -4846518.075   4434553.023   2066896.214
10 0 59291  31422.000000  0   -4481957.140   4342619.048   2908843.178
10 0 59291  31542.000000  0   -4041362.864   4167706.435   3699563.782
10 0 59291  31662.000000  0   -3533888.476   3911636.143   4425145.593
10 0 59291  31782.000000  0   -2969814.877   3577824.535   5072836.530
10 0 59291  31902.000000  0   -2360337.321   3171236.163   5631269.359
10 0 59291  32022.000000  0   -1717338.109   2698305.963   6090658.456
10 0 59291  32142.000000  0   -1053150.331   2166832.465   6442966.205
10 0 59291  32262.000000  0    -380319.032   1585844.532   6682035.730
10 0 59291  32382.000000  0     288635.076    965445.660   6803692.793
10 0 59291  32502.000000  0     941448.510    316636.968   6805813.956
10 0 59291  32622.000000  0    1566338.633   -348877.231   6688361.030
10 0 59291  32742.000000  0    2152215.410  -1018899.867   6453382.540
10 0 59291  32862.000000  0    2688878.030  -1680963.910   6104980.530
10 0 59291  32982.000000  0    3167194.477  -2322564.000   5649244.448
10 0 59291  33102.000000  0    3579260.007  -2931393.722   5094150.055
10 0 59291  33222.000000  0    3918531.796  -3495583.747   4449426.066
10 0 59291  33342.000000  0    4179937.511  -4003936.972   3726388.508
10 0 59291  33462.000000  0    4359955.086  -4446155.572   2937744.898
10 0 59291  33582.000000  0    4456662.045  -4813054.764   2097371.059
10 0 59291  33702.000000  0    4469752.521  -5096757.360   1220063.572
10 0 59291  33822.000000  0    4400520.656  -5290864.580    321273.337
10 0 59291  33942.000000  0    4251810.895  -5390597.934   -583173.856
10 0 59291  34062.000000  0    4027938.306  -5392910.365  -1477364.250
10 0 59291  34182.000000  0    3734577.724  -5296561.795  -2345585.500
10 0 59291  34302.000000  0    3378626.696  -5102157.590  -3172609.351
10 0 59291  34422.000000  0    2968045.793  -4812149.564  -3943963.377
10 0 59291  34542.000000  0    2511679.887  -4430800.736  -4646184.911
10 0 59291  34662.000000  0    2019065.770  -3964114.355  -5267053.033
10 0 59291  34782.000000  0    1500232.054  -3419729.601  -5795793.260
10 0 59291  34902.000000  0     965495.571  -2806789.529  -6223254.271
10 0 59291  35022.000000  0     425257.321  -2135782.677  -6542055.972
10 0 59291  35142.000000  0    -110197.538  -1418360.322  -6746706.116
10 0 59291  35262.000000  0    -630891.050   -667133.891  -6833684.867
10 0 59291  35382.000000  0   -1127333.132    104543.784  -6801498.326
10 0 59291  35502.000000  0   -1590690.541    882810.191  -6650700.594
10 0 59291  35622.000000  0   -2012940.371   1653535.742  -6383885.136
10 0 59291  35742.000000  0   -2387005.937   2402573.848  -6005645.019
10 0 59291  35862.000000  0   -2706875.130   3116015.750  -5522503.354
10 0 59291  35982.000000  0   -2967697.999   3780447.039  -4942811.857
10 0 59291  36102.000000  0   -3165863.279   4383201.504  -4276618.272
10 0 59291  36222.000000  0   -3299050.761   4912606.905  -3535501.470
10 0 59291  36342.000000  0   -3366257.292   5358216.068  -2732377.731
10 0 59291  36462.000000  0   -3367797.714   5711020.331  -1881282.495
10 0 59291  36582.000000  0   -3305279.594   5963641.200   -997127.086
10 0 59291  36702.000000  0   -3181549.889   6110492.034    -95434.648
10 0 59291  36822.000000  0   -3000617.879   6147905.875    807936.556
10 0 59291  36942.000000  0   -2767553.809   6074227.684   1697081.797
10 0 59291  37062.000000  0   -2488362.680   5889863.369   2556341.009
10 0 59291  37182.000000  0   -2169839.986   5597285.692   3370583.046
10 0 59291  37302.000000  0   -1819413.841   5200999.327   4125477.971
10 0 59291  37422.000000  0   -1444976.876   4707465.868   4807753.133
10 0 59291  37542.000000  0   -1054711.065   4124990.629   5405427.991
10 0 59291  37662.000000  0    -656910.459   3463573.914   5908022.331
10 0 59291  37782.000000  0    -259807.214   2734730.961   6306735.868
10 0 59291  37902.000000  0     128597.020   1951284.710   6594595.985
10 0 59291  38022.000000  0     500690.564   1127136.412   6766574.038
10 0 59291  38142.000000  0     849399.604    277016.150   6819667.445
10 0 59291  38262.000000  0    1168321.335   -583779.630   6752948.284
10 0 59291  38382.000000  0    1451840.838  -1439662.690   6567579.674
10 0 59291  38502.000000  0    1695230.104  -2275034.673   6266796.913
10 0 59291  38622.000000  0    1894727.365  -3074571.799   5855855.257
10 0 59291  38742.000000  0    2047595.647  -3823508.253   5341943.181
10 0 59291  38862.000000  0    2152159.236  -4507912.156   4734061.664
10 0 59291  38982.000000  0    2207818.232  -5114949.465   4042872.607
10 0 59291  39102.000000  0    2215041.569  -5633133.211   3280516.236
10 0 59291  39222.000000  0    2175335.215  -6052549.901   2460398.493
10 0 59291  39342.000000  0    2091188.124  -6365057.265   1596953.499
10 0 59291  39462.000000  0    1965998.315  -6564448.789    705385.964
10 0 59291  39582.000000  0    1803978.567  -6646582.854   -198602.279
10 0 59291  39702.000000  0    1610045.310  -6609472.501  -1099097.832
10 0 59291  39822.000000  0    1389691.051  -6453328.248  -1980267.216
10 0 59291  39942.000000  0    1148845.461  -6180556.644  -2826642.332
10 0 59291  40062.000000  0     893730.206  -5795714.103  -3623397.918
10 0 59291  40182.000000  0     630711.516  -5305419.210  -4356612.685
10 0 59291  40302.000000  0     366151.698  -4718226.386  -5013510.815
10 0 59291  40422.000000  0     106264.703  -4044464.654  -5582678.620
10 0 59291  40542.000000  0    -143021.160  -3296045.660  -6054254.546
10 0 59291  40662.000000  0    -376190.553  -2486245.351  -6420089.201
10 0 59291  40782.000000  0    -588256.154  -1629464.537  -6673874.700
10 0 59291  40902.000000  0    -774859.590   -740973.067  -6811242.758
10 0 59291  41022.000000  0    -932356.501    163359.177  -6829832.308
10 0 59291  41142.000000  0   -1057884.788   1067339.936  -6729324.374
10 0 59291  41262.000000  0   -1149415.318   1954736.838  -6511446.804
10 0 59291  41382.000000  0   -1205784.134   2809561.364  -6179947.697
10 0 59291  41502.000000  0   -1226705.999   3616351.903  -5740539.551
10 0 59291  41622.000000  0   -1212769.167   4360451.778  -5200810.497
10 0 59291  41742.000000  0   -1165410.942   5028277.120  -4570105.032
10 0 59291  41862.000000  0   -1086874.963   5607571.011  -3859372.935
10 0 59291  41982.000000  0    -980150.013   6087636.876  -3080987.639
10 0 59291  42102.000000  0    -848891.553   6459546.399  -2248537.682
10 0 59291  42222.000000  0    -697327.387   6716318.239  -1376592.734
10 0 59291  42342.000000  0    -530149.899   6853060.599   -480447.934
10 0 59291  42462.000000  0    -352396.330   6867075.275    424147.964
10 0 59291  42582.000000  0    -169320.493   6757919.068   1321276.882
10 0 59291  42702.000000  0      13740.089   6527418.296   2195141.924
10 0 59291  42822.000000  0     191498.196   6179635.696   3030354.217
10 0 59291  42942.000000  0     358848.993   5720793.920   3812210.083
10 0 59291  43062.000000  0     510997.568   5159159.244   4526954.755
10 0 59291  43182.000000  0     643577.717   4504882.311   5162031.667
10 0 59291  43302.000000  0     752759.104   3769800.254   5706299.033
10 0 59291  43422.000000  0     835342.099   2967215.846   6150221.269
10 0 59291  43542.000000  0     888836.011   2111648.813   6486031.499
10 0 59291  43662.000000  0     911520.057   1218567.887   6707861.422
10 0 59291  43782.000000  0     902486.531    304107.754   6811837.710
10 0 59291  43902.000000  0     861665.187   -615221.893   6796144.748
10 0 59291  44022.000000  0     789828.189  -1522833.653   6661055.791
10 0 59291  44142.000000  0     688575.537  -2402361.563   6408928.775
10 0 59291  44262.000000  0     560301.208  -3237956.976   6044168.394
10 0 59291  44382.000000  0     408140.281  -4014576.209   5573151.508
10 0 59291  44502.000000  0     235899.273  -4718252.546   5004120.647
10 0 59291  44622.000000  0      47970.599  -5336352.275   4347047.562
10 0 59291  44742.000000  0    -150768.625  -5857811.520   3613464.592
10 0 59291  44862.000000  0    -355071.813  -6273344.724   2816264.450
10 0 59291  44982.000000  0    -559448.376  -6575620.316   1969472.999
10 0 59291  45102.000000  0    -758296.379  -6759398.156   1087999.827
10 0 59291  45222.000000  0    -946040.309  -6821629.555    187370.177
10 0 59291  45342.000000  0   -1117270.020  -6761511.001   -716558.403
10 0 59291  45462.000000  0   -1266875.806  -6580491.382  -1607884.512
10 0 59291  45582.000000  0   -1390177.054  -6282234.431  -2470950.403
10 0 59291  45702.000000  0   -1483041.893  -5872537.998  -3290623.364
10 0 59291  45822.000000  0   -1541994.559  -5359211.240  -4052565.344
10 0 59291  45942.000000  0   -1564307.457  -4751913.145  -4743483.880
99
